STARLINK-1404
1 25686C 20035AF  21325.11406117  .00006270  00000-0  42023-3 0  3255
2 25686  53.0533 262.7220 0001894  58.9467  16.2931 15.06380154    18
